NORAD_CAT_ID,OBJECT_NAME,OBJECT_TYPE,EPOCH,MEAN_MOTION,ECCENTRICITY,INCLINATION,RA_OF_ASC_NODE,ARG_OF_PERICENTER,MEAN_ANOMALY,BSTAR,MEAN_MOTION_DOT,MEAN_MOTION_DDOT,TLE_LINE0,TLE_LINE1,TLE_LINE2,SEMIMAJOR_AXIS,PERIOD,APOGEE,PERIGEE,DECAYED
54775.0,STARLINK-5465,PAYLOAD,2023-10-03 10:12:56,15.08836821,0.0001528,53.2168,71.5287,83.8847,276.2319,0.00018494,2.656e-05,0.0,0 STARLINK-5465,1 54775U 22175T   23276.42564859  .00002656  00000-0  18494-3 0  9996,2 54775  53.2168  71.5287 0001528  83.8847 276.2319 15.08836821 45820,6917.89,95.438,540.812,538.698,0.0
54775.0,STARLINK-5465,PAYLOAD,2023-10-03 18:09:51,15.08845791,0.0001361,53.2165,70.0426,85.9735,274.1413,0.00040433,6.154e-05,0.0,0 STARLINK-5465,1 54775U 22175T   23276.75684635  .00006154  00000-0  40433-3 0  9992,2 54775  53.2165  70.0426 0001361  85.9735 274.1413 15.08845791 43714,6917.863,95.437,540.669,538.786,0.0
54775.0,STARLINK-5465,PAYLOAD,2023-10-04 10:03:42,15.08847042,0.0001535,53.2168,67.0688,85.6425,274.4743,0.00035032,5.293e-05,0.0,0 STARLINK-5465,1 54775U 22175T   23277.41924621  .00005293  00000-0  35032-3 0  9990,2 54775  53.2168  67.0688 0001535  85.6425 274.4743 15.08847042 45979,6917.859,95.437,540.786,538.662,0.0
54775.0,STARLINK-5465,PAYLOAD,2023-10-04 16:25:15,15.08854079,0.0001371,53.2163,65.8799,85.7096,274.4053,0.00044089,6.738e-05,0.0,0 STARLINK-5465,1 54775U 22175T   23277.68420250  .00006738  00000-0  44089-3 0  9995,2 54775  53.2163  65.8799 0001371  85.7096 274.4053 15.08854079 46014,6917.837,95.437,540.651,538.754,0.0
54775.0,STARLINK-5465,PAYLOAD,2023-10-05 09:54:29,15.08843535,0.0001664,53.2169,62.6087,91.3633,268.7549,9.7144e-05,1.258e-05,0.0,0 STARLINK-5465,1 54775U 22175T   23278.41284462  .00001258  00000-0  97144-4 0  9993,2 54775  53.2169  62.6087 0001664  91.3633 268.7549 15.08843535 43962,6917.87,95.437,540.886,538.583,0.0
54775.0,STARLINK-5465,PAYLOAD,2023-10-05 13:05:15,15.08845342,0.0001619,53.2189,62.0132,104.8734,255.2437,9.8537e-05,1.281e-05,0.0,0 STARLINK-5465,1 54775U 22175T   23278.54532269  .00001281  00000-0  98537-4 0  9991,2 54775  53.2189  62.0132 0001619 104.8734 255.2437 15.08845342 46149,6917.864,95.437,540.849,538.609,0.0
54775.0,STARLINK-5465,PAYLOAD,2023-10-05 16:16:02,15.08844871,0.0001449,53.2175,61.4199,92.9868,267.129,0.00011598,1.559e-05,0.0,0 STARLINK-5465,1 54775U 22175T   23278.67780299  .00001559  00000-0  11598-3 0  9992,2 54775  53.2175  61.4199 0001449  92.9868 267.1290 15.08844871 46163,6917.866,95.437,540.733,538.728,0.0
54775.0,STARLINK-5465,PAYLOAD,2023-10-06 09:45:17,15.08833981,0.0001495,53.218,58.1482,95.2186,264.8977,-1.6239e-05,-5.46e-06,0.0,0 STARLINK-5465,1 54775U 22175T   23279.40644934 -.00000546  00000-0 -16239-4 0  9994,2 54775  53.2180  58.1482 0001495  95.2186 264.8977 15.08833981 44116,6917.899,95.438,540.798,538.73,0.0
54775.0,STARLINK-5465,PAYLOAD,2023-10-06 12:56:03,15.08833741,0.0001526,53.2181,57.5536,95.1115,265.0051,-2.1437e-05,-6.29e-06,0.0,0 STARLINK-5465,1 54775U 22175T   23279.53893014 -.00000629  00000-0 -21437-4 0  9991,2 54775  53.2181  57.5536 0001526  95.1115 265.0051 15.08833741 46297,6917.9,95.438,540.82,538.709,0.0
54775.0,STARLINK-5465,PAYLOAD,2023-10-06 16:06:49,15.08838563,0.0001394,53.2182,56.9611,79.2416,280.8733,6.3103e-05,7.16e-06,0.0,0 STARLINK-5465,1 54775U 22175T   23279.67140964  .00000716  00000-0  63103-4 0  9996,2 54775  53.2182  56.9611 0001394  79.2416 280.8733 15.08838563 46317,6917.885,95.438,540.714,538.785,0.0
54775.0,STARLINK-5465,PAYLOAD,2023-10-07 14:22:13,15.08845022,0.0001439,53.2177,52.7975,84.0067,276.1089,0.00029213,4.365e-05,0.0,0 STARLINK-5465,1 54775U 22175T   23280.59876862  .00004365  00000-0  29213-3 0  9999,2 54775  53.2177  52.7975 0001439  84.0067 276.1089 15.08845022 46459,6917.865,95.437,540.726,538.735,0.0
54775.0,STARLINK-5465,PAYLOAD,2023-10-07 15:57:36,15.08849649,0.000141,53.2181,52.5005,83.5217,276.5935,0.00036785,5.573e-05,0.0,0 STARLINK-5465,1 54775U 22175T   23280.66500812  .00005573  00000-0  36785-3 0  9990,2 54775  53.2181  52.5005 0001410  83.5217 276.5935 15.08849649 44301,6917.851,95.437,540.691,538.74,0.0
54775.0,STARLINK-5465,PAYLOAD,2023-10-08 01:29:55,15.08841932,0.0001486,53.2185,50.7131,87.4959,272.6203,0.00018727,2.694e-05,0.0,0 STARLINK-5465,1 54775U 22175T   23281.06244999  .00002694  00000-0  18727-3 0  9993,2 54775  53.2185  50.7131 0001486  87.4959 272.6203 15.08841932 44362,6917.874,95.437,540.767,538.711,0.0
54775.0,STARLINK-5465,PAYLOAD,2023-10-08 12:37:37,15.08836825,0.0001738,53.2197,48.6353,99.5715,260.5474,3.2562e-05,2.3e-06,0.0,0 STARLINK-5465,1 54775U 22175T   23281.52613315  .00000230  00000-0  32562-4 0  9994,2 54775  53.2197  48.6353 0001738  99.5715 260.5474 15.08836825 46599,6917.89,95.438,540.957,538.553,0.0
54775.0,STARLINK-5465,PAYLOAD,2023-10-08 18:59:09,15.08852057,0.0001443,53.2179,47.4428,85.6105,274.5052,0.00026848,3.989e-05,0.0,0 STARLINK-5465,1 54775U 22175T   23281.79108579  .00003989  00000-0  26848-3 0  9997,2 54775  53.2179  47.4428 0001443  85.6105 274.5052 15.08852057 46638,6917.844,95.437,540.707,538.71,0.0
54775.0,STARLINK-5465,PAYLOAD,2023-10-09 01:20:42,15.08839325,0.0001803,53.2178,46.253,77.0053,283.1141,5.1944e-05,5.39e-06,0.0,0 STARLINK-5465,1 54775U 22175T   23282.05605263  .00000539  00000-0  51944-4 0  9993,2 54775  53.2178  46.2530 0001803  77.0053 283.1141 15.08839325 44518,6917.882,95.438,540.995,538.5,0.0
54775.0,STARLINK-5465,PAYLOAD,2023-10-09 14:03:47,15.08842349,0.0001697,53.2191,43.8738,92.0625,268.0561,-4.0576e-06,-3.53e-06,0.0,0 STARLINK-5465,1 54775U 22175T   23282.58597109 -.00000353  00000-0 -40576-5 0  9996,2 54775  53.2191  43.8738 0001697  92.0625 268.0561 15.08842349 46755,6917.873,95.437,540.912,538.564,0.0
54775.0,STARLINK-5465,PAYLOAD,2023-10-09 15:39:10,15.08848506,0.0001539,53.2184,43.5763,81.2429,278.8738,9.9556e-05,1.297e-05,0.0,0 STARLINK-5465,1 54775U 22175T   23282.65220853  .00001297  00000-0  99556-4 0  9990,2 54775  53.2184  43.5763 0001539  81.2429 278.8738 15.08848506 46766,6917.854,95.437,540.784,538.655,0.0
54775.0,STARLINK-5465,PAYLOAD,2023-10-10 13:54:34,15.08849469,0.0001864,53.2191,39.4123,70.4798,289.6395,0.00016901,2.403e-05,0.0,0 STARLINK-5465,1 54775U 22175T   23283.57956868  .00002403  00000-0  16901-3 0  9996,2 54775  53.2191  39.4123 0001864  70.4798 289.6395 15.08849469 46902,6917.851,95.437,541.006,538.427,0.0
54775.0,STARLINK-5465,PAYLOAD,2023-10-10 17:05:20,15.08861868,0.0001781,53.2191,38.8152,78.2588,281.8604,0.0003795,5.76e-05,0.0,0 STARLINK-5465,1 54775U 22175T   23283.71204142  .00005760  00000-0  37950-3 0  9999,2 54775  53.2191  38.8152 0001781  78.2588 281.8604 15.08861868 44764,6917.814,95.436,540.911,538.446,0.0
54775.0,STARLINK-5465,PAYLOAD,2023-10-10 20:16:06,15.08871268,0.000152,53.2184,38.2232,76.6373,283.4788,0.00059809,9.251e-05,0.0,0 STARLINK-5465,1 54775U 22175T   23283.84451846  .00009251  00000-0  59809-3 0  9994,2 54775  53.2184  38.2232 0001520  76.6373 283.4788 15.08871268 46942,6917.785,95.436,540.701,538.598,0.0
54775.0,STARLINK-5465,PAYLOAD,2023-10-11 07:23:50,15.08819462,0.000146,53.2187,36.1418,95.5925,264.5234,-0.0003666,-6.114e-05,0.0,0 STARLINK-5465,1 54775U 22175T   23284.30821799 -.00006114  00000-0 -36660-3 0  9991,2 54775  53.2187  36.1418 0001460  95.5925 264.5234 15.08819462 44856,6917.943,95.439,540.818,538.798,0.0
54775.0,STARLINK-5465,PAYLOAD,2023-10-11 13:45:22,15.08837907,0.0001618,53.2184,34.954,94.2542,265.8635,-1.5511e-05,-5.35e-06,0.0,0 STARLINK-5465,1 54775U 22175T   23284.57317269 -.00000535  00000-0 -15511-4 0  9996,2 54775  53.2184  34.9540 0001618  94.2542 265.8635 15.08837907 47059,6917.887,95.438,540.871,538.632,0.0
54775.0,STARLINK-5465,PAYLOAD,2023-10-12 13:36:08,15.08851045,0.0001501,53.2176,30.4932,96.8884,263.2279,0.00027616,4.111e-05,0.0,0 STARLINK-5465,1 54775U 22175T   23285.56677046  .00004111  00000-0  27616-3 0  9998,2 54775  53.2176  30.4932 0001501  96.8884 263.2279 15.08851045 47206,6917.847,95.437,540.75,538.673,0.0
54775.0,STARLINK-5465,PAYLOAD,2023-10-12 18:22:17,15.0886071,0.0001454,53.219,29.5979,103.6721,256.4433,0.00050337,7.737e-05,0.0,0 STARLINK-5465,1 54775U 22175T   23285.76548584  .00007737  00000-0  50337-3 0  9997,2 54775  53.2190  29.5979 0001454 103.6721 256.4433 15.08860710 45074,6917.817,95.436,540.688,538.676,0.0
54775.0,STARLINK-5465,PAYLOAD,2023-10-13 00:43:51,15.08832927,0.0001325,53.2188,28.4117,98.8231,261.2912,0.00012675,1.73e-05,0.0,0 STARLINK-5465,1 54775U 22175T   23286.03045675  .00001730  00000-0  12675-3 0  9991,2 54775  53.2188  28.4117 0001325  98.8231 261.2912 15.08832927 45111,6917.902,95.438,540.684,538.85,0.0
54775.0,STARLINK-5465,PAYLOAD,2023-10-13 13:26:56,15.08849377,0.0001651,53.2184,26.0346,92.5347,267.5834,0.00041118,6.264e-05,0.0,0 STARLINK-5465,1 54775U 22175T   23286.56037574  .00006264  00000-0  41118-3 0  9999,2 54775  53.2184  26.0346 0001651  92.5347 267.5834 15.08849377 47353,6917.852,95.437,540.859,538.575,0.0
54775.0,STARLINK-5465,PAYLOAD,2023-10-14 13:17:42,15.08864859,0.0001569,53.2195,21.5775,92.6762,267.4409,0.00071265,0.0001108,0.0,0 STARLINK-5465,1 54775U 22175T   23287.55396733  .00011080  00000-0  71265-3 0  9992,2 54775  53.2195  21.5775 0001569  92.6762 267.4409 15.08864859 47507,6917.804,95.436,540.755,538.584,0.0
54775.0,STARLINK-5465,PAYLOAD,2023-10-14 22:50:01,15.08844599,0.0001462,53.2195,19.7902,99.6845,260.4312,5.161e-05,5.34e-06,0.0,0 STARLINK-5465,1 54775U 22175T   23287.95140975  .00000534  00000-0  51610-4 0  9996,2 54775  53.2195  19.7902 0001462  99.6845 260.4312 15.08844599 45401,6917.866,95.437,540.743,538.72,0.0
54775.0,STARLINK-5465,PAYLOAD,2023-10-15 09:57:44,15.08825088,0.0001606,53.2199,17.7109,107.679,252.4377,-0.00033456,-5.606e-05,0.0,0 STARLINK-5465,1 54775U 22175T   23288.41509814 -.00005606  00000-0 -33456-3 0  9993,2 54775  53.2199  17.7109 0001606 107.6790 252.4377 15.08825088 45472,6917.926,95.438,540.902,538.68,0.0
